CCSDS_OMM_VERS = 2.0
CREATION_DATE  = 
ORIGINATOR     = 

OBJECT_NAME    = STARLINK-35056
OBJECT_ID      = 2025-247B
CENTER_NAME    = EARTH
REF_FRAME      = TEME
TIME_SYSTEM    = UTC
MEAN_ELEMENT_THEORY = SGP/SGP4

EPOCH          = 2025-11-21T16:00:05.000256
MEAN_MOTION    = 15.43137726
ECCENTRICITY   = .0001316
INCLINATION    = 53.1593
RA_OF_ASC_NODE = 336.9473
ARG_OF_PERICENTER = 91.3827
MEAN_ANOMALY   = 212.6414

EPHEMERIS_TYPE = 0
CLASSIFICATION_TYPE = U
NORAD_CAT_ID   = 66266
ELEMENT_SET_NO = 999
REV_AT_EPOCH   = 450
BSTAR          = -.52271E-1
MEAN_MOTION_DOT = -.2084836E-1
MEAN_MOTION_DDOT = 0

CCSDS_OMM_VERS = 2.0
CREATION_DATE  = 
ORIGINATOR     = 

OBJECT_NAME    = STARLINK-35550
OBJECT_ID      = 2025-247C
CENTER_NAME    = EARTH
REF_FRAME      = TEME
TIME_SYSTEM    = UTC
MEAN_ELEMENT_THEORY = SGP/SGP4

EPOCH          = 2025-11-21T16:00:05.000256
MEAN_MOTION    = 15.49275748
ECCENTRICITY   = .0001624
INCLINATION    = 53.1597
RA_OF_ASC_NODE = 335.7773
ARG_OF_PERICENTER = 82.1164
MEAN_ANOMALY   = 71.2750

EPHEMERIS_TYPE = 0
CLASSIFICATION_TYPE = U
NORAD_CAT_ID   = 66267
ELEMENT_SET_NO = 999
REV_AT_EPOCH   = 417
BSTAR          = .44883E-3
MEAN_MOTION_DOT = .24563E-3
MEAN_MOTION_DDOT = 0

CCSDS_OMM_VERS = 2.0
CREATION_DATE  = 
ORIGINATOR     = 

OBJECT_NAME    = STARLINK-35069
OBJECT_ID      = 2025-247D
CENTER_NAME    = EARTH
REF_FRAME      = TEME
TIME_SYSTEM    = UTC
MEAN_ELEMENT_THEORY = SGP/SGP4

EPOCH          = 2025-11-21T16:00:05.000256
MEAN_MOTION    = 15.45487787
ECCENTRICITY   = .000112
INCLINATION    = 53.1586
RA_OF_ASC_NODE = 336.9164
ARG_OF_PERICENTER = 97.2871
MEAN_ANOMALY   = 221.9083

EPHEMERIS_TYPE = 0
CLASSIFICATION_TYPE = U
NORAD_CAT_ID   = 66268
ELEMENT_SET_NO = 999
REV_AT_EPOCH   = 445
BSTAR          = -.48609E-1
MEAN_MOTION_DOT = -.2099517E-1
MEAN_MOTION_DDOT = 0

CCSDS_OMM_VERS = 2.0
CREATION_DATE  = 
ORIGINATOR     = 

OBJECT_NAME    = STARLINK-34910
OBJECT_ID      = 2025-247E
CENTER_NAME    = EARTH
REF_FRAME      = TEME
TIME_SYSTEM    = UTC
MEAN_ELEMENT_THEORY = SGP/SGP4

EPOCH          = 2025-11-21T16:00:05.000256
MEAN_MOTION    = 15.49284710
ECCENTRICITY   = .0001182
INCLINATION    = 53.1597
RA_OF_ASC_NODE = 335.7816
ARG_OF_PERICENTER = 61.3096
MEAN_ANOMALY   = 90.1240

EPHEMERIS_TYPE = 0
CLASSIFICATION_TYPE = U
NORAD_CAT_ID   = 66269
ELEMENT_SET_NO = 999
REV_AT_EPOCH   = 450
BSTAR          = .45542E-3
MEAN_MOTION_DOT = .24939E-3
MEAN_MOTION_DDOT = 0

CCSDS_OMM_VERS = 2.0
CREATION_DATE  = 
ORIGINATOR     = 

OBJECT_NAME    = STARLINK-35757
OBJECT_ID      = 2025-247F
CENTER_NAME    = EARTH
REF_FRAME      = TEME
TIME_SYSTEM    = UTC
MEAN_ELEMENT_THEORY = SGP/SGP4

EPOCH          = 2025-11-21T16:00:05.000256
MEAN_MOTION    = 15.45483414
ECCENTRICITY   = .0001098
INCLINATION    = 53.1589
RA_OF_ASC_NODE = 336.9131
ARG_OF_PERICENTER = 94.7346
MEAN_ANOMALY   = 226.3535

EPHEMERIS_TYPE = 0
CLASSIFICATION_TYPE = U
NORAD_CAT_ID   = 66270
ELEMENT_SET_NO = 999
REV_AT_EPOCH   = 455
BSTAR          = -.48605E-1
MEAN_MOTION_DOT = -.209906E-1
MEAN_MOTION_DDOT = 0

CCSDS_OMM_VERS = 2.0
CREATION_DATE  = 
ORIGINATOR     = 

OBJECT_NAME    = STARLINK-35745
OBJECT_ID      = 2025-247G
CENTER_NAME    = EARTH
REF_FRAME      = TEME
TIME_SYSTEM    = UTC
MEAN_ELEMENT_THEORY = SGP/SGP4

EPOCH          = 2025-11-21T16:00:05.000256
MEAN_MOTION    = 15.48313738
ECCENTRICITY   = .0001147
INCLINATION    = 53.1588
RA_OF_ASC_NODE = 336.8975
ARG_OF_PERICENTER = 82.1071
MEAN_ANOMALY   = 246.4416

EPHEMERIS_TYPE = 0
CLASSIFICATION_TYPE = U
NORAD_CAT_ID   = 66271
ELEMENT_SET_NO = 999
REV_AT_EPOCH   = 455
BSTAR          = -.4394E-1
MEAN_MOTION_DOT = -.2095354E-1
MEAN_MOTION_DDOT = 0

CCSDS_OMM_VERS = 2.0
CREATION_DATE  = 
ORIGINATOR     = 

OBJECT_NAME    = STARLINK-35741
OBJECT_ID      = 2025-247H
CENTER_NAME    = EARTH
REF_FRAME      = TEME
TIME_SYSTEM    = UTC
MEAN_ELEMENT_THEORY = SGP/SGP4

EPOCH          = 2025-11-21T16:00:05.000256
MEAN_MOTION    = 15.48300023
ECCENTRICITY   = .0000879
INCLINATION    = 53.1588
RA_OF_ASC_NODE = 336.8929
ARG_OF_PERICENTER = 86.6538
MEAN_ANOMALY   = 243.8132

EPHEMERIS_TYPE = 0
CLASSIFICATION_TYPE = U
NORAD_CAT_ID   = 66272
ELEMENT_SET_NO = 999
REV_AT_EPOCH   = 455
BSTAR          = -.43787E-1
MEAN_MOTION_DOT = -.2087813E-1
MEAN_MOTION_DDOT = 0

CCSDS_OMM_VERS = 2.0
CREATION_DATE  = 
ORIGINATOR     = 

OBJECT_NAME    = STARLINK-35730
OBJECT_ID      = 2025-247J
CENTER_NAME    = EARTH
REF_FRAME      = TEME
TIME_SYSTEM    = UTC
MEAN_ELEMENT_THEORY = SGP/SGP4

EPOCH          = 2025-11-21T16:00:05.000256
MEAN_MOTION    = 15.49411624
ECCENTRICITY   = .0001059
INCLINATION    = 53.1586
RA_OF_ASC_NODE = 336.8883
ARG_OF_PERICENTER = 91.7436
MEAN_ANOMALY   = 241.0683

EPHEMERIS_TYPE = 0
CLASSIFICATION_TYPE = U
NORAD_CAT_ID   = 66273
ELEMENT_SET_NO = 999
REV_AT_EPOCH   = 455
BSTAR          = -.46541E-2
MEAN_MOTION_DOT = -.25203E-2
MEAN_MOTION_DDOT = 0

CCSDS_OMM_VERS = 2.0
CREATION_DATE  = 
ORIGINATOR     = 

OBJECT_NAME    = STARLINK-35760
OBJECT_ID      = 2025-247K
CENTER_NAME    = EARTH
REF_FRAME      = TEME
TIME_SYSTEM    = UTC
MEAN_ELEMENT_THEORY = SGP/SGP4

EPOCH          = 2025-11-21T16:00:05.000256
MEAN_MOTION    = 15.49379706
ECCENTRICITY   = .0001322
INCLINATION    = 53.1588
RA_OF_ASC_NODE = 336.8847
ARG_OF_PERICENTER = 89.3236
MEAN_ANOMALY   = 245.3981

EPHEMERIS_TYPE = 0
CLASSIFICATION_TYPE = U
NORAD_CAT_ID   = 66274
ELEMENT_SET_NO = 999
REV_AT_EPOCH   = 423
BSTAR          = -.35264E-2
MEAN_MOTION_DOT = -.192309E-2
MEAN_MOTION_DDOT = 0

CCSDS_OMM_VERS = 2.0
CREATION_DATE  = 
ORIGINATOR     = 

OBJECT_NAME    = STARLINK-35752
OBJECT_ID      = 2025-247L
CENTER_NAME    = EARTH
REF_FRAME      = TEME
TIME_SYSTEM    = UTC
MEAN_ELEMENT_THEORY = SGP/SGP4

EPOCH          = 2025-11-21T16:00:05.000256
MEAN_MOTION    = 15.49265482
ECCENTRICITY   = .0001234
INCLINATION    = 53.1586
RA_OF_ASC_NODE = 336.8804
ARG_OF_PERICENTER = 80.1818
MEAN_ANOMALY   = 256.4855

EPHEMERIS_TYPE = 0
CLASSIFICATION_TYPE = U
NORAD_CAT_ID   = 66275
ELEMENT_SET_NO = 999
REV_AT_EPOCH   = 423
BSTAR          = .7267E-3
MEAN_MOTION_DOT = .40113E-3
MEAN_MOTION_DDOT = 0

CCSDS_OMM_VERS = 2.0
CREATION_DATE  = 
ORIGINATOR     = 

OBJECT_NAME    = STARLINK-35742
OBJECT_ID      = 2025-247M
CENTER_NAME    = EARTH
REF_FRAME      = TEME
TIME_SYSTEM    = UTC
MEAN_ELEMENT_THEORY = SGP/SGP4

EPOCH          = 2025-11-21T16:00:05.000256
MEAN_MOTION    = 15.49268176
ECCENTRICITY   = .0001247
INCLINATION    = 53.1585
RA_OF_ASC_NODE = 336.8767
ARG_OF_PERICENTER = 89.8355
MEAN_ANOMALY   = 248.7597

EPHEMERIS_TYPE = 0
CLASSIFICATION_TYPE = U
NORAD_CAT_ID   = 66276
ELEMENT_SET_NO = 999
REV_AT_EPOCH   = 455
BSTAR          = .39285E-3
MEAN_MOTION_DOT = .21429E-3
MEAN_MOTION_DDOT = 0

CCSDS_OMM_VERS = 2.0
CREATION_DATE  = 
ORIGINATOR     = 

OBJECT_NAME    = STARLINK-35708
OBJECT_ID      = 2025-247N
CENTER_NAME    = EARTH
REF_FRAME      = TEME
TIME_SYSTEM    = UTC
MEAN_ELEMENT_THEORY = SGP/SGP4

EPOCH          = 2025-11-21T16:00:05.000256
MEAN_MOTION    = 15.49365400
ECCENTRICITY   = .0001252
INCLINATION    = 53.1585
RA_OF_ASC_NODE = 336.8724
ARG_OF_PERICENTER = 81.8518
MEAN_ANOMALY   = 258.6493

EPHEMERIS_TYPE = 0
CLASSIFICATION_TYPE = U
NORAD_CAT_ID   = 66277
ELEMENT_SET_NO = 999
REV_AT_EPOCH   = 455
BSTAR          = -.27646E-2
MEAN_MOTION_DOT = -.151561E-2
MEAN_MOTION_DDOT = 0

