STARLINK-35056          
1 66266U 25247B   25325.66672454 -.02084836  00000+0 -52271-1 0  9993
2 66266  53.1593 336.9473 0001316  91.3827 212.6414 15.43137726  4508
STARLINK-35550          
1 66267U 25247C   25325.66672454  .00024563  00000+0  44883-3 0  9993
2 66267  53.1597 335.7773 0001624  82.1164  71.2750 15.49275748  4175
STARLINK-35069          
1 66268U 25247D   25325.66672454 -.02099517  00000+0 -48609-1 0  9997
2 66268  53.1586 336.9164 0001120  97.2871 221.9083 15.45487787  4452
STARLINK-34910          
1 66269U 25247E   25325.66672454  .00024939  00000+0  45542-3 0  9995
2 66269  53.1597 335.7816 0001182  61.3096  90.1240 15.49284710  4507
STARLINK-35757          
1 66270U 25247F   25325.66672454 -.02099060  00000+0 -48605-1 0  9999
2 66270  53.1589 336.9131 0001098  94.7346 226.3535 15.45483414  4550
STARLINK-35745          
1 66271U 25247G   25325.66672454 -.02095354  00000+0 -43940-1 0  9999
2 66271  53.1588 336.8975 0001147  82.1071 246.4416 15.48313738  4551
STARLINK-35741          
1 66272U 25247H   25325.66672454 -.02087813  00000+0 -43787-1 0  9990
2 66272  53.1588 336.8929 0000879  86.6538 243.8132 15.48300023  4558
STARLINK-35730          
1 66273U 25247J   25325.66672454 -.00252030  00000+0 -46541-2 0  9996
2 66273  53.1586 336.8883 0001059  91.7436 241.0683 15.49411624  4553
STARLINK-35760          
1 66274U 25247K   25325.66672454 -.00192309  00000+0 -35264-2 0  9999
2 66274  53.1588 336.8847 0001322  89.3236 245.3981 15.49379706  4237
STARLINK-35752          
1 66275U 25247L   25325.66672454  .00040113  00000+0  72670-3 0  9996
2 66275  53.1586 336.8804 0001234  80.1818 256.4855 15.49265482  4234
STARLINK-35742          
1 66276U 25247M   25325.66672454  .00021429  00000+0  39285-3 0  9991
2 66276  53.1585 336.8767 0001247  89.8355 248.7597 15.49268176  4553
STARLINK-35708          
1 66277U 25247N   25325.66672454 -.00151561  00000+0 -27646-2 0  9992
2 66277  53.1585 336.8724 0001252  81.8518 258.6493 15.49365400  4559
